start=new Date('2021-11-05T00:00:00.000Z').valueOf();
sats=[{"NORAD_CAT_ID":"46774","MEAN_ANOMALY":"266.4358","MEAN_MOTION_DOT":"0.00061216","COUNTRY_CODE":"US","PERIOD":"95.474","INCLINATION":"53.0539","PERIAPSIS":"540.339","SITE":"AFETR","SEMIMAJOR_AXIS":"6919.629","TLE_LINE2":"2 46774  53.0539 255.7991 0001670  93.6823 266.4358 15.08268002 57422","ARG_OF_PERICENTER":"93.6823","EPOCH":"2021-11-04T13:31:31.532160","RCS_SIZE":"LARGE","ELEMENT_SET_NO":"999","MEAN_MOTION_DDOT":"0.0000000000000","OBJECT_NAME":"STARLINK-1939","APOAPSIS":"542.650","MEAN_MOTION":"15.08268002","LAUNCH_DATE":"2020-10-24","ECCENTRICITY":"0.00016700","DECAY_DATE":null,"MEAN_ELEMENT_THEORY":"SGP4","OBJECT_ID":"2020-074AM","FILE":"3201568","OBJECT_TYPE":"PAYLOAD","GP_ID":"188914106","TLE_LINE1":"1 46774U 20074AM  21308.56355940  .00061216  00000-0  38911-2 0  9992","CENTER_NAME":"EARTH","REV_AT_EPOCH":"5742","EPHEMERIS_TYPE":"0","BSTAR":"0.00389110000000","RA_OF_ASC_NODE":"255.7991","CLASSIFICATION_TYPE":"U","TIME_SYSTEM":"UTC","REF_FRAME":"TEME"},{"INCLINATION":"53.0585","PERIOD":"93.673","COUNTRY_CODE":"US","NORAD_CAT_ID":"46775","MEAN_ANOMALY":"279.8820","MEAN_MOTION_DOT":"0.00502396","MEAN_MOTION":"15.37262796","LAUNCH_DATE":"2020-10-24","APOAPSIS":"455.058","TLE_LINE2":"2 46775  53.0585 254.8623 0001242  80.2323 279.8820 15.37262796 57101","SEMIMAJOR_AXIS":"6832.345","ARG_OF_PERICENTER":"80.2323","EPOCH":"2021-11-04T13:14:52.729152","RCS_SIZE":"LARGE","ELEMENT_SET_NO":"999","MEAN_MOTION_DDOT":"0.0000000000000","OBJECT_NAME":"STARLINK-1945","PERIAPSIS":"453.361","SITE":"AFETR","OBJECT_TYPE":"PAYLOAD","GP_ID":"188914675","FILE":"3201572","ECCENTRICITY":"0.00012420","DECAY_DATE":null,"MEAN_ELEMENT_THEORY":"SGP4","OBJECT_ID":"2020-074AN","REF_FRAME":"TEME","TIME_SYSTEM":"UTC","BSTAR":"0.01269500000000","RA_OF_ASC_NODE":"254.8623","CLASSIFICATION_TYPE":"U","CENTER_NAME":"EARTH","REV_AT_EPOCH":"5710","EPHEMERIS_TYPE":"0","TLE_LINE1":"1 46775U 20074AN  21308.55199918  .00502396  00000-0  12695-1 0  9992"},{"OBJECT_ID":"2020-074AP","ECCENTRICITY":"0.00016360","DECAY_DATE":null,"MEAN_ELEMENT_THEORY":"SGP4","FILE":"3201574","OBJECT_TYPE":"PAYLOAD","GP_ID":"188914201","TLE_LINE1":"1 46776U 20074AP  21308.34026551  .00032472  00000-0  21864-2 0  9994","EPHEMERIS_TYPE":"0","REV_AT_EPOCH":"5705","CENTER_NAME":"EARTH","CLASSIFICATION_TYPE":"U","BSTAR":"0.00218640000000","RA_OF_ASC_NODE":"258.0159","REF_FRAME":"TEME","TIME_SYSTEM":"UTC","MEAN_MOTION_DOT":"0.00032472","NORAD_CAT_ID":"46776","MEAN_ANOMALY":"281.0525","COUNTRY_CODE":"US","PERIOD":"95.590","INCLINATION":"53.0536","PERIAPSIS":"545.955","SITE":"AFETR","RCS_SIZE":"LARGE","MEAN_MOTION_DDOT":"0.0000000000000","ELEMENT_SET_NO":"999","OBJECT_NAME":"STARLINK-1946","SEMIMAJOR_AXIS":"6925.223","TLE_LINE2":"2 46776  53.0536 258.0159 0001636  79.0648 281.0525 15.06441130 57059","EPOCH":"2021-11-04T08:09:58.940064","ARG_OF_PERICENTER":"79.0648","APOAPSIS":"548.220","LAUNCH_DATE":"2020-10-24","MEAN_MOTION":"15.06441130"},{"COUNTRY_CODE":"US","MEAN_MOTION_DOT":"0.00001244","MEAN_ANOMALY":"290.2268","NORAD_CAT_ID":"46779","INCLINATION":"53.0548","PERIOD":"95.592","ELEMENT_SET_NO":"999","MEAN_MOTION_DDOT":"0.0000000000000","OBJECT_NAME":"STARLINK-1798","RCS_SIZE":"LARGE","ARG_OF_PERICENTER":"69.8887","EPOCH":"2021-11-04T11:42:56.096928","SEMIMAJOR_AXIS":"6925.339","TLE_LINE2":"2 46779  53.0548 232.3485 0001547  69.8887 290.2268 15.06403142 57456","SITE":"AFETR","PERIAPSIS":"546.133","LAUNCH_DATE":"2020-10-24","MEAN_MOTION":"15.06403142","APOAPSIS":"548.275","OBJECT_ID":"2020-074AS","MEAN_ELEMENT_THEORY":"SGP4","DECAY_DATE":null,"ECCENTRICITY":"0.00015470","GP_ID":"188906703","OBJECT_TYPE":"PAYLOAD","FILE":"3201289","EPHEMERIS_TYPE":"0","CENTER_NAME":"EARTH","REV_AT_EPOCH":"5745","TLE_LINE1":"1 46779U 20074AS  21308.48814927  .00001244  00000-0  10237-3 0  9990","TIME_SYSTEM":"UTC","REF_FRAME":"TEME","CLASSIFICATION_TYPE":"U","RA_OF_ASC_NODE":"232.3485","BSTAR":"0.00010237000000"},{"APOAPSIS":"548.253","LAUNCH_DATE":"2020-10-24","MEAN_MOTION":"15.06410027","SITE":"AFETR","PERIAPSIS":"546.113","MEAN_MOTION_DDOT":"0.0000000000000","OBJECT_NAME":"STARLINK-1832","ELEMENT_SET_NO":"999","RCS_SIZE":"LARGE","EPOCH":"2021-11-04T17:49:08.888736","ARG_OF_PERICENTER":"70.4429","SEMIMAJOR_AXIS":"6925.318","TLE_LINE2":"2 46780  53.0554 231.2100 0001545  70.4429 289.6727 15.06410027 57772","PERIOD":"95.592","INCLINATION":"53.0554","MEAN_MOTION_DOT":"0.00001882","MEAN_ANOMALY":"289.6727","NORAD_CAT_ID":"46780","COUNTRY_CODE":"US","CLASSIFICATION_TYPE":"U","RA_OF_ASC_NODE":"231.2100","BSTAR":"0.00014515000000","TIME_SYSTEM":"UTC","REF_FRAME":"TEME","TLE_LINE1":"1 46780U 20074AT  21308.74246399  .00001882  00000-0  14515-3 0  9994","EPHEMERIS_TYPE":"0","REV_AT_EPOCH":"5777","CENTER_NAME":"EARTH","FILE":"3202404","GP_ID":"188954073","OBJECT_TYPE":"PAYLOAD","OBJECT_ID":"2020-074AT","DECAY_DATE":null,"MEAN_ELEMENT_THEORY":"SGP4","ECCENTRICITY":"0.00015450"},{"PERIOD":"95.592","INCLINATION":"53.0543","MEAN_ANOMALY":"281.5606","NORAD_CAT_ID":"46781","MEAN_MOTION_DOT":"0.00002673","COUNTRY_CODE":"US","APOAPSIS":"548.179","MEAN_MOTION":"15.06404019","LAUNCH_DATE":"2020-10-24","SITE":"AFETR","PERIAPSIS":"546.223","EPOCH":"2021-11-04T13:27:45.076032","ARG_OF_PERICENTER":"78.5541","SEMIMAJOR_AXIS":"6925.336","TLE_LINE2":"2 46781  53.0543 242.0304 0001412  78.5541 281.5606 15.06404019 57618","MEAN_MOTION_DDOT":"0.0000000000000","ELEMENT_SET_NO":"999","OBJECT_NAME":"STARLINK-1834","RCS_SIZE":"LARGE","FILE":"3200778","GP_ID":"188895628","OBJECT_TYPE":"PAYLOAD","DECAY_DATE":null,"MEAN_ELEMENT_THEORY":"SGP4","ECCENTRICITY":"0.00014120","OBJECT_ID":"2020-074AU","RA_OF_ASC_NODE":"242.0304","BSTAR":"0.00019825000000","CLASSIFICATION_TYPE":"U","REF_FRAME":"TEME","TIME_SYSTEM":"UTC","TLE_LINE1":"1 46781U 20074AU  21308.56093838  .00002673  00000-0  19825-3 0  9991","CENTER_NAME":"EARTH","REV_AT_EPOCH":"5761","EPHEMERIS_TYPE":"0"},{"MEAN_MOTION_DOT":"0.00003112","NORAD_CAT_ID":"46782","MEAN_ANOMALY":"274.2847","COUNTRY_CODE":"US","PERIOD":"95.592","INCLINATION":"53.0520","PERIAPSIS":"542.619","SITE":"AFETR","RCS_SIZE":"LARGE","MEAN_MOTION_DDOT":"0.0000000000000","ELEMENT_SET_NO":"999","OBJECT_NAME":"STARLINK-1835","TLE_LINE2":"2 46782  53.0520 232.1599 0006645  85.8901 274.2847 15.06397563 57468","SEMIMAJOR_AXIS":"6925.356","EPOCH":"2021-11-04T12:46:39.465408","ARG_OF_PERICENTER":"85.8901","APOAPSIS":"551.823","LAUNCH_DATE":"2020-10-24","MEAN_MOTION":"15.06397563","OBJECT_ID":"2020-074AV","ECCENTRICITY":"0.00066450","MEAN_ELEMENT_THEORY":"SGP4","DECAY_DATE":null,"FILE":"3201261","OBJECT_TYPE":"PAYLOAD","GP_ID":"188907207","TLE_LINE1":"1 46782U 20074AV  21308.53240122  .00003112  00000-0  22779-3 0  9990","EPHEMERIS_TYPE":"0","REV_AT_EPOCH":"5746","CENTER_NAME":"EARTH","CLASSIFICATION_TYPE":"U","BSTAR":"0.00022779000000","RA_OF_ASC_NODE":"232.1599","REF_FRAME":"TEME","TIME_SYSTEM":"UTC"},{"PERIOD":"95.592","INCLINATION":"53.0564","NORAD_CAT_ID":"46783","MEAN_ANOMALY":"290.8786","MEAN_MOTION_DOT":"0.00001072","COUNTRY_CODE":"US","APOAPSIS":"548.343","MEAN_MOTION":"15.06395327","LAUNCH_DATE":"2020-10-24","PERIAPSIS":"546.113","SITE":"AFETR","TLE_LINE2":"2 46783  53.0564 233.5758 0001610  69.2375 290.8786 15.06395327 57694","SEMIMAJOR_AXIS":"6925.363","EPOCH":"2021-11-04T05:10:09.745248","ARG_OF_PERICENTER":"69.2375","RCS_SIZE":"LARGE","MEAN_MOTION_DDOT":"0.0000000000000","ELEMENT_SET_NO":"999","OBJECT_NAME":"STARLINK-1851","FILE":"3200778","OBJECT_TYPE":"PAYLOAD","GP_ID":"188896619","ECCENTRICITY":"0.00016100","DECAY_DATE":null,"MEAN_ELEMENT_THEORY":"SGP4","OBJECT_ID":"2020-074AW","BSTAR":"0.00009088700000","RA_OF_ASC_NODE":"233.5758","CLASSIFICATION_TYPE":"U","TIME_SYSTEM":"UTC","REF_FRAME":"TEME","TLE_LINE1":"1 46783U 20074AW  21308.21539057  .00001072  00000-0  90887-4 0  9993","CENTER_NAME":"EARTH","REV_AT_EPOCH":"5769","EPHEMERIS_TYPE":"0"},{"ELEMENT_SET_NO":"999","MEAN_MOTION_DDOT":"0.0000000000000","OBJECT_NAME":"STARLINK-1882","RCS_SIZE":"LARGE","EPOCH":"2021-11-04T17:59:45.872736","ARG_OF_PERICENTER":"66.4811","SEMIMAJOR_AXIS":"6925.319","TLE_LINE2":"2 46784  53.0542 231.1666 0001508  66.4811 293.6337 15.06409659 57779","SITE":"AFETR","PERIAPSIS":"546.140","LAUNCH_DATE":"2020-10-24","MEAN_MOTION":"15.06409659","APOAPSIS":"548.228","COUNTRY_CODE":"US","MEAN_MOTION_DOT":"0.00002325","MEAN_ANOMALY":"293.6337","NORAD_CAT_ID":"46784","INCLINATION":"53.0542","PERIOD":"95.592","EPHEMERIS_TYPE":"0","REV_AT_EPOCH":"5777","CENTER_NAME":"EARTH","TLE_LINE1":"1 46784U 20074AX  21308.74983649  .00002325  00000-0  17486-3 0  9997","TIME_SYSTEM":"UTC","REF_FRAME":"TEME","CLASSIFICATION_TYPE":"U","RA_OF_ASC_NODE":"231.1666","BSTAR":"0.00017486000000","OBJECT_ID":"2020-074AX","DECAY_DATE":null,"MEAN_ELEMENT_THEORY":"SGP4","ECCENTRICITY":"0.00015080","GP_ID":"188953580","OBJECT_TYPE":"PAYLOAD","FILE":"3202404"},{"DECAY_DATE":null,"MEAN_ELEMENT_THEORY":"SGP4","ECCENTRICITY":"0.00023220","OBJECT_ID":"2020-074AY","GP_ID":"188909764","OBJECT_TYPE":"PAYLOAD","FILE":"3201388","CENTER_NAME":"EARTH","REV_AT_EPOCH":"5737","EPHEMERIS_TYPE":"0","TLE_LINE1":"1 46785U 20074AY  21308.20432381 -.00000559  00000-0 -18642-4 0  9996","TIME_SYSTEM":"UTC","REF_FRAME":"TEME","RA_OF_ASC_NODE":"233.6367","BSTAR":"-0.00001864200000","CLASSIFICATION_TYPE":"U","COUNTRY_CODE":"US","MEAN_ANOMALY":"81.5295","NORAD_CAT_ID":"46785","MEAN_MOTION_DOT":"-0.00000559","INCLINATION":"53.0556","PERIOD":"95.593","EPOCH":"2021-11-04T04:54:13.577184","ARG_OF_PERICENTER":"278.5431","TLE_LINE2":"2 46785  53.0556 233.6367 0002322 278.5431  81.5295 15.06391572 57376","SEMIMAJOR_AXIS":"6925.374","MEAN_MOTION_DDOT":"0.0000000000000","ELEMENT_SET_NO":"999","OBJECT_NAME":"STARLINK-1883","RCS_SIZE":"LARGE","SITE":"AFETR","PERIAPSIS":"545.631","MEAN_MOTION":"15.06391572","LAUNCH_DATE":"2020-10-24","APOAPSIS":"548.847"}];
